start=new Date('2021-10-26T00:00:00.000Z').valueOf();
sats=[{"ARG_OF_PERICENTER":"57.5179","MEAN_MOTION_DOT":"-0.00008507","RCS_SIZE":"LARGE","MEAN_ELEMENT_THEORY":"SGP4","ELEMENT_SET_NO":"999","FILE":"3183403","SEMIMAJOR_AXIS":"6925.327","OBJECT_NAME":"STARLINK-2752","COUNTRY_CODE":"US","TLE_LINE2":"2 48692  53.0540  41.8090 0001474  57.5179 196.5502 15.06406954 24611","DECAY_DATE":null,"SITE":"AFETR","APOAPSIS":"548.213","EPHEMERIS_TYPE":"0","MEAN_ANOMALY":"196.5502","OBJECT_TYPE":"PAYLOAD","NORAD_CAT_ID":"48692","TLE_LINE1":"1 48692U 21044BG  21298.58335648 -.00008507  00000-0 -55276-3 0  9994","INCLINATION":"53.0540","LAUNCH_DATE":"2021-05-26","MEAN_MOTION_DDOT":"0.0000000000000","TIME_SYSTEM":"UTC","CLASSIFICATION_TYPE":"U","PERIAPSIS":"546.171","REF_FRAME":"TEME","ECCENTRICITY":"0.00014740","PERIOD":"95.592","MEAN_MOTION":"15.06406954","BSTAR":"-0.00055276000000","GP_ID":"188121622","REV_AT_EPOCH":"2461","EPOCH":"2021-10-25T14:00:01.999872","CENTER_NAME":"EARTH","OBJECT_ID":"2021-044BG","RA_OF_ASC_NODE":"41.8090"},{"CENTER_NAME":"EARTH","RA_OF_ASC_NODE":"46.8032","OBJECT_ID":"2021-044BH","EPOCH":"2021-10-25T14:00:01.999872","PERIOD":"95.592","MEAN_MOTION":"15.06407656","ECCENTRICITY":"0.00013140","REV_AT_EPOCH":"2453","GP_ID":"188119170","BSTAR":"-0.00077461000000","INCLINATION":"53.0538","TLE_LINE1":"1 48693U 21044BH  21298.58335648 -.00011803  00000-0 -77461-3 0  9998","OBJECT_TYPE":"PAYLOAD","MEAN_ANOMALY":"66.0097","NORAD_CAT_ID":"48693","REF_FRAME":"TEME","PERIAPSIS":"546.280","CLASSIFICATION_TYPE":"U","MEAN_MOTION_DDOT":"0.0000000000000","LAUNCH_DATE":"2021-05-26","TIME_SYSTEM":"UTC","SITE":"AFETR","DECAY_DATE":null,"EPHEMERIS_TYPE":"0","APOAPSIS":"548.100","FILE":"3183326","TLE_LINE2":"2 48693  53.0538  46.8032 0001314  80.5584  66.0097 15.06407656 24530","COUNTRY_CODE":"US","OBJECT_NAME":"STARLINK-2618","SEMIMAJOR_AXIS":"6925.325","RCS_SIZE":"LARGE","MEAN_MOTION_DOT":"-0.00011803","MEAN_ELEMENT_THEORY":"SGP4","ARG_OF_PERICENTER":"80.5584","ELEMENT_SET_NO":"999"},{"EPOCH":"2021-10-25T14:00:01.999872","CENTER_NAME":"EARTH","OBJECT_ID":"2021-044BJ","RA_OF_ASC_NODE":"51.8175","TLE_LINE1":"1 48694U 21044BJ  21298.58335648 -.00012961  00000-0 -85257-3 0  9997","INCLINATION":"53.0530","NORAD_CAT_ID":"48694","OBJECT_TYPE":"PAYLOAD","MEAN_ANOMALY":"232.4489","PERIAPSIS":"546.385","REF_FRAME":"TEME","TIME_SYSTEM":"UTC","LAUNCH_DATE":"2021-05-26","MEAN_MOTION_DDOT":"0.0000000000000","CLASSIFICATION_TYPE":"U","MEAN_MOTION":"15.06409251","PERIOD":"95.592","ECCENTRICITY":"0.00011550","REV_AT_EPOCH":"2446","BSTAR":"-0.00085257000000","GP_ID":"188121956","FILE":"3183399","COUNTRY_CODE":"US","TLE_LINE2":"2 48694  53.0530  51.8175 0001155  81.4641 232.4489 15.06409251 24463","SEMIMAJOR_AXIS":"6925.320","OBJECT_NAME":"STARLINK-2748","SITE":"AFETR","DECAY_DATE":null,"APOAPSIS":"547.985","EPHEMERIS_TYPE":"0","RCS_SIZE":"LARGE","MEAN_MOTION_DOT":"-0.00012961","MEAN_ELEMENT_THEORY":"SGP4","ARG_OF_PERICENTER":"81.4641","ELEMENT_SET_NO":"999"},{"OBJECT_NAME":"STARLINK-2616","SEMIMAJOR_AXIS":"6925.292","TLE_LINE2":"2 48695  53.0557  51.8060 0001277  69.8692 149.2008 15.06418471 24531","COUNTRY_CODE":"US","FILE":"3183315","EPHEMERIS_TYPE":"0","APOAPSIS":"548.041","DECAY_DATE":null,"SITE":"AFETR","ELEMENT_SET_NO":"999","ARG_OF_PERICENTER":"69.8692","MEAN_MOTION_DOT":"-0.00026896","RCS_SIZE":"LARGE","MEAN_ELEMENT_THEORY":"SGP4","EPOCH":"2021-10-25T14:00:01.999872","OBJECT_ID":"2021-044BK","RA_OF_ASC_NODE":"51.8060","CENTER_NAME":"EARTH","CLASSIFICATION_TYPE":"U","TIME_SYSTEM":"UTC","LAUNCH_DATE":"2021-05-26","MEAN_MOTION_DDOT":"0.0000000000000","REF_FRAME":"TEME","PERIAPSIS":"546.273","OBJECT_TYPE":"PAYLOAD","MEAN_ANOMALY":"149.2008","NORAD_CAT_ID":"48695","INCLINATION":"53.0557","TLE_LINE1":"1 48695U 21044BK  21298.58335648 -.00026896  00000-0 -17927-2 0  9998","GP_ID":"188119426","BSTAR":"-0.00179270000000","REV_AT_EPOCH":"2453","ECCENTRICITY":"0.00012770","PERIOD":"95.591","MEAN_MOTION":"15.06418471"},{"CENTER_NAME":"EARTH","RA_OF_ASC_NODE":"56.6949","OBJECT_ID":"2021-044BL","EPOCH":"2021-10-25T14:23:32.873856","ECCENTRICITY":"0.00013310","MEAN_MOTION":"15.06402294","PERIOD":"95.592","GP_ID":"188150935","BSTAR":"0.00013916000000","REV_AT_EPOCH":"2440","OBJECT_TYPE":"PAYLOAD","NORAD_CAT_ID":"48696","MEAN_ANOMALY":"277.5971","INCLINATION":"53.0676","TLE_LINE1":"1 48696U 21044BL  21298.59968604  .00001792  00000-0  13916-3 0  9995","CLASSIFICATION_TYPE":"U","MEAN_MOTION_DDOT":"0.0000000000000","LAUNCH_DATE":"2021-05-26","TIME_SYSTEM":"UTC","REF_FRAME":"TEME","PERIAPSIS":"546.285","DECAY_DATE":null,"SITE":"AFETR","EPHEMERIS_TYPE":"0","APOAPSIS":"548.128","FILE":"3183717","OBJECT_NAME":"STARLINK-2753","SEMIMAJOR_AXIS":"6925.342","TLE_LINE2":"2 48696  53.0676  56.6949 0001331  82.5170 277.5971 15.06402294 24403","COUNTRY_CODE":"US","ARG_OF_PERICENTER":"82.5170","RCS_SIZE":"LARGE","MEAN_MOTION_DOT":"0.00001792","MEAN_ELEMENT_THEORY":"SGP4","ELEMENT_SET_NO":"999"},{"INCLINATION":"53.0571","TLE_LINE1":"1 48697U 21044BM  21298.56650164  .00001115  00000-0  93736-4 0  9990","OBJECT_TYPE":"PAYLOAD","NORAD_CAT_ID":"48697","MEAN_ANOMALY":"262.3596","REF_FRAME":"TEME","PERIAPSIS":"545.967","CLASSIFICATION_TYPE":"U","LAUNCH_DATE":"2021-05-26","MEAN_MOTION_DDOT":"0.0000000000000","TIME_SYSTEM":"UTC","MEAN_MOTION":"15.06403089","PERIOD":"95.592","ECCENTRICITY":"0.00017860","REV_AT_EPOCH":"2439","GP_ID":"188150511","BSTAR":"0.00009373600000","EPOCH":"2021-10-25T13:35:45.741696","CENTER_NAME":"EARTH","OBJECT_ID":"2021-044BM","RA_OF_ASC_NODE":"56.8841","RCS_SIZE":"LARGE","MEAN_MOTION_DOT":"0.00001115","MEAN_ELEMENT_THEORY":"SGP4","ARG_OF_PERICENTER":"97.7595","ELEMENT_SET_NO":"999","FILE":"3183673","TLE_LINE2":"2 48697  53.0571  56.8841 0001786  97.7595 262.3596 15.06403089 24390","COUNTRY_CODE":"US","OBJECT_NAME":"STARLINK-2715","SEMIMAJOR_AXIS":"6925.339","SITE":"AFETR","DECAY_DATE":null,"EPHEMERIS_TYPE":"0","APOAPSIS":"548.441"},{"RA_OF_ASC_NODE":"66.4670","OBJECT_ID":"2021-059A","CENTER_NAME":"EARTH","EPOCH":"2021-10-25T20:00:01.999872","REV_AT_EPOCH":"1897","BSTAR":"0.00195130000000","GP_ID":"188146935","MEAN_MOTION":"15.15952540","PERIOD":"94.990","ECCENTRICITY":"0.00086440","PERIAPSIS":"512.129","REF_FRAME":"TEME","TIME_SYSTEM":"UTC","LAUNCH_DATE":"2021-06-30","MEAN_MOTION_DDOT":"0.0000000000000","CLASSIFICATION_TYPE":"U","TLE_LINE1":"1 48879U 21059A   21298.83335648  .00037555  00000-0  19513-2 0  9991","INCLINATION":"97.5243","NORAD_CAT_ID":"48879","OBJECT_TYPE":"PAYLOAD","MEAN_ANOMALY":"207.8379","EPHEMERIS_TYPE":"0","APOAPSIS":"524.051","SITE":"AFETR","DECAY_DATE":null,"COUNTRY_CODE":"US","TLE_LINE2":"2 48879  97.5243  66.4670 0008644 224.0621 207.8379 15.15952540 18974","SEMIMAJOR_AXIS":"6896.225","OBJECT_NAME":"STARLINK-3003","FILE":"3183529","ELEMENT_SET_NO":"999","RCS_SIZE":"LARGE","MEAN_MOTION_DOT":"0.00037555","MEAN_ELEMENT_THEORY":"SGP4","ARG_OF_PERICENTER":"224.0621"},{"PERIAPSIS":"509.713","REF_FRAME":"TEME","LAUNCH_DATE":"2021-06-30","MEAN_MOTION_DDOT":"0.0000000000000","TIME_SYSTEM":"UTC","CLASSIFICATION_TYPE":"U","TLE_LINE1":"1 48880U 21059B   21298.83335648  .00032286  00000-0  16493-2 0  9993","INCLINATION":"97.5242","MEAN_ANOMALY":"236.3502","OBJECT_TYPE":"PAYLOAD","NORAD_CAT_ID":"48880","REV_AT_EPOCH":"1897","BSTAR":"0.00164930000000","GP_ID":"188147174","PERIOD":"94.950","MEAN_MOTION":"15.16580344","ECCENTRICITY":"0.00093900","EPOCH":"2021-10-25T20:00:01.999872","OBJECT_ID":"2021-059B","RA_OF_ASC_NODE":"66.4824","CENTER_NAME":"EARTH","ELEMENT_SET_NO":"999","RCS_SIZE":"LARGE","MEAN_MOTION_DOT":"0.00032286","MEAN_ELEMENT_THEORY":"SGP4","ARG_OF_PERICENTER":"232.0864","COUNTRY_CODE":"US","TLE_LINE2":"2 48880  97.5242  66.4824 0009390 232.0864 236.3502 15.16580344 18978","SEMIMAJOR_AXIS":"6894.322","OBJECT_NAME":"STARLINK-3004","FILE":"3183544","EPHEMERIS_TYPE":"0","APOAPSIS":"522.661","SITE":"AFETR","DECAY_DATE":null},{"REV_AT_EPOCH":"1897","BSTAR":"-0.00070212000000","GP_ID":"188147230","MEAN_MOTION":"15.15982181","PERIOD":"94.988","ECCENTRICITY":"0.00013730","PERIAPSIS":"517.054","REF_FRAME":"TEME","TIME_SYSTEM":"UTC","LAUNCH_DATE":"2021-06-30","MEAN_MOTION_DDOT":"0.0000000000000","CLASSIFICATION_TYPE":"U","TLE_LINE1":"1 48881U 21059C   21298.83335648 -.00013508  00000-0 -70212-3 0  9992","INCLINATION":"97.5249","OBJECT_TYPE":"PAYLOAD","MEAN_ANOMALY":"222.1066","NORAD_CAT_ID":"48881","RA_OF_ASC_NODE":"66.4806","OBJECT_ID":"2021-059C","CENTER_NAME":"EARTH","EPOCH":"2021-10-25T20:00:01.999872","ELEMENT_SET_NO":"999","RCS_SIZE":"LARGE","MEAN_MOTION_DOT":"-0.00013508","MEAN_ELEMENT_THEORY":"SGP4","ARG_OF_PERICENTER":"221.4213","APOAPSIS":"518.947","EPHEMERIS_TYPE":"0","SITE":"AFETR","DECAY_DATE":null,"COUNTRY_CODE":"US","TLE_LINE2":"2 48881  97.5249  66.4806 0001373 221.4213 222.1066 15.15982181 18971","SEMIMAJOR_AXIS":"6896.135","OBJECT_NAME":"STARLINK-3005","FILE":"3183603"},{"COUNTRY_CODE":"US","TLE_LINE2":"2 49131  70.0008  11.3060 0003778 284.7729 192.3058 15.69753398  3681","SEMIMAJOR_AXIS":"6737.740","OBJECT_NAME":"STARLINK-3096","FILE":"3183453","APOAPSIS":"362.150","EPHEMERIS_TYPE":"0","SITE":"AFWTR","DECAY_DATE":null,"ELEMENT_SET_NO":"999","RCS_SIZE":"LARGE","MEAN_MOTION_DOT":"0.00010087","MEAN_ELEMENT_THEORY":"SGP4","ARG_OF_PERICENTER":"284.7729","EPOCH":"2021-10-25T06:00:02.000160","RA_OF_ASC_NODE":"11.3060","OBJECT_ID":"2021-082B","CENTER_NAME":"EARTH","PERIAPSIS":"357.059","REF_FRAME":"TEME","MEAN_MOTION_DDOT":"0.0000000000000","LAUNCH_DATE":"2021-09-14","TIME_SYSTEM":"UTC","CLASSIFICATION_TYPE":"U","TLE_LINE1":"1 49131U 21082B   21298.25002315  .00010087  00000-0  86155-4 0  9996","INCLINATION":"70.0008","MEAN_ANOMALY":"192.3058","OBJECT_TYPE":"PAYLOAD","NORAD_CAT_ID":"49131","REV_AT_EPOCH":"368","BSTAR":"0.00008615500000","GP_ID":"188145255","PERIOD":"91.734","MEAN_MOTION":"15.69753398","ECCENTRICITY":"0.00037780"}];
